#dP2021  4 27 18  0  0.00000000      96 __u+U ITR00 EXT  IAC
## 2155 237600.00000000   900.00000000 59331 0.7500000000000
+  116   C06C07C08C09C10C11C12C13C14C16C19C20C21C22C23C24C25
+        C26C27C28C29C30C32C33C34C35C36C37C38C39C40C41C42C43
+        C44C45C46E01E02E03E04E05E07E08E09E11E12E13E14E15E18
+        E19E21E24E25E26E27E30E31E33E36G01G02G03G04G05G06G07
+        G08G09G10G12G13G14G15G16G17G18G19G20G21G22G23G24G25
+        G26G27G28G29G30G31G32J01J02J03R01R02R03R04R05R07R08
+        R09R11R12R13R14R15R16R17R18R19R20R21R22R24  0  0  0
++        11 10 10 10  9 11  9 11 11 12 10  9  8  9  8 10  8
++         9 10 10 10 10  8 10 10  8  9 10 10 11 11 11  9 11
++        11 10  9  8 10  9  8  9  8  9  9  8  8  7  8 10  8
++         9  8  9  9  7  9  9  8  8  8  7  8  8  8  7  7  8
++         8  8  7  8  8  8  9  8  8  7  9  8  8  8  8  9  8
++         9  0  9  9  9  9  8 12  9 10 10  8  9  9  9  9  8
++        10  9  9  9  9  9  8 10  9 10 10  8 11  7  0  0  0
%c M  cc GPS ccc cccc cccc cccc cccc ccccc ccccc ccccc ccccc
%c cc cc ccc ccc cccc cccc cccc cccc ccccc ccccc ccccc ccccc
%f  0.0000000  0.000000000  0.00000000000  0.000000000000000
%f  0.0000000  0.000000000  0.00000000000  0.000000000000000
%i    0    0    0    0      0      0      0      0         0
%i    0    0    0    0      0      0      0      0         0
/* IAC                                ULTRA-RAPID PREDICTION
/* S/V CLOCKS ARE ALIGNED TO GNSS TIME                      
/* G:C1WC2W R:C1PC2P E:C1XC5X C:C2IC6I J:C1CC2S             
/* PCV:IGS14_2148 OL/AL:FES2004  NONE     YN ORB:CoN CLK:CoN
*  2021 04 28 17 15  0.00000000
PC06  -7729.993893  31036.920338  28183.224099    326.580975
PC07 -21742.824317  22991.422095 -27832.702441   -167.389842
PC08 -21555.176777  35940.095792   2327.080654   -890.674785
PC09   3499.912501  38864.354044  16816.679264    562.584105
PC10  -4753.035746  26348.858879 -32408.891206    -50.054472
PC11  10432.324955 -14009.906407  21828.446021    310.302115
PC12  16912.006925   5890.723951  21427.425140    907.031361
PC13 -11810.080235  37489.116897  15026.739265    239.821998
PC14  20032.649361  -8683.880126 -17313.779562    588.429904
PC16  -4210.631912  32956.342559  26205.156746   -807.998065
PC19 -10688.791832  13551.619922  21964.387402    815.345605
PC20 -25304.428233   3461.812567  11306.154957   -941.298166
PC21  25440.114776   9280.956875   6709.003390   -946.343315
PC22  10534.912123  16112.843819  20200.346178   -961.900237
PC23   -511.157182 -20339.033882  19102.455692   -895.851464
PC24  21977.345830 -11618.147239 -12711.997665   -829.882368
PC25  14335.633996 -23386.678845   5181.780602   -925.352736
PC26  16382.530499   4829.775248 -22082.676405    914.554126
PC27 -16851.915540 -15590.138037 -15871.861895    522.935131
PC28  -8554.810864 -26556.256725    623.684900    -80.803031
PC29  -3911.619328  22047.918688 -16667.036267    385.039503
PC30 -15276.893739   4466.639346 -22928.224053    463.772665
PC32 -25547.397985  -9055.750120  -6646.164642   -941.066087
PC33  10663.145758 -13596.069475 -21896.351081   -942.567096
PC34  15052.218751  -5187.644670  22907.150918   -685.533256
PC35   9259.651567  26330.261271   -957.513936   -305.694057
PC36 -15119.566216  22949.358374  -4824.822536   -728.820869
PC37 -15674.761944  -6101.817622  22280.038583   -904.556920
PC38 -18272.591771  37421.565754   6271.274140    145.240390
PC39    420.662877  34528.548329  24299.030532     30.676933
PC40  -9902.294129  21213.808396 -35057.614345    155.678696
PC41 -10316.964444 -16119.568604 -20253.937218   -946.211403
PC42  25618.927855  -2970.672826 -10586.338152   -919.483402
PC43   4461.813820 -21710.041639  16930.112872   -706.223863
PC44  17409.885291  15237.645658  15619.694682    160.942953
PC45    581.069427  20206.144402 -19228.185982    425.995705
PC46 -21872.338960  12489.989335  11982.872151    295.284891
PE01 -18074.086527  18177.956942 -14797.962968  -1096.602754
PE02  17991.337340 -18203.636034  14879.219159    215.393476
PE03   7068.560404 -15937.482563 -23917.314780   -425.141309
PE04  12223.480133  22567.705119  14755.593268   -759.727386
PE05  22535.242289    168.612352 -19182.135562   -285.182040
PE07 -24697.686502 -15984.268006   3337.072284   -531.252735
PE08 -12697.843024 -22435.904675 -14550.338237   6010.528832
PE09  24789.543479  15777.755112  -3485.844864   5685.631049
PE11  13408.446525  13199.927668  22848.899288   6043.377849
PE12   2366.056111  28145.750450   8896.248292   5237.018227
PE13 -13227.622204 -13562.355865 -22737.056730    415.662343
PE14   3445.127382  24586.956012 -14941.912591  -1412.720721
PE15  -2458.500700 -28102.715560  -8941.907366    817.089694
PE18 -17080.055377 -23139.605110    191.037507  -1545.879643
PE19  -9183.470023  14329.615971  24227.762871    263.664566
PE21 -27881.152825   9561.929582   2694.517967   -661.907519
PE24  21377.305029   5678.828675 -19697.679409   -871.626303
PE25  27911.059785  -9433.627737  -2887.717609   -532.250276
PE26 -16300.693986   9712.894752 -22717.004506   1871.903238
PE27 -21913.870219  -4982.768286  19259.753521    -20.986910
PE30  -2022.587309 -16878.607436  24221.530556   2988.204860
PE31   3117.264865  16487.421321 -24380.934700   -480.617787
PE33  -9730.734987  26082.219713 -10077.008654   -468.022117
PE36  16188.197540  -8915.874001  23120.621039   -199.889954
PG01  13847.278190 -20174.040558   9624.646814    703.990472
PG02 -14759.760615  -2170.216812 -21326.211533   -599.695262
PG03  19491.876670 -12778.548354 -12711.482523   -149.455128
PG04   9978.468495 -11712.313105 -21638.389821   -194.009195
PG05 -26198.472966   4273.156642  -2661.862733    -40.396208
PG06  -8760.712293 -15211.644187 -19854.460435     10.924453
PG07   6112.822761 -25358.690510   3629.151963    135.658398
PG08  16433.127375  -3108.870878  20693.865172    -19.194461
PG09   -513.582839 -19585.217829 -17983.353053   -342.071433
PG10  10015.778839  12819.062617  21161.881454   -111.272481
PG12 -21959.966838  10256.677381 -10945.852118    -33.929950
PG13 -18901.154820  -6919.474493  17264.985569    125.486622
PG14  -8620.626631 -13685.286830  21061.598632     92.060958
PG15 -16342.473557   5341.639390  19962.119331   -153.041403
PG16  26124.096527   1379.606316  -6091.150577   -316.826633
PG17 -12696.756436 -22700.096192   5795.112809    433.844019
PG18  -4062.313519  25256.384963   7015.760887    351.336154
PG19 -17236.567077 -19967.940282  -3857.229983     -6.935912
PG20 -18377.202242  15263.845086  11223.858645    522.719980
PG21  15842.660350 -13457.770736  16967.599023    114.352659
PG22  24415.909362  -9690.814687  -2954.296181   -627.182588
PG23  -2828.495084  15730.247191  21185.899381    110.679591
PG24 -15000.180272  16397.960482  14003.098839     42.518052
PG25 -10142.093041  15630.638081 -19086.544522    127.259586
PG26  21781.165908   5484.625896 -14439.204498     78.315316
PG27  20601.400461   8659.016735  14461.184155   -120.838043
PG28 -12429.853615 -12611.846861  20291.577292    579.693381
PG29   -505.498576  19383.516757 -18178.915781   -337.948223
PG30  -3629.088286 -21651.582259  14841.573845   -419.040804
PG31  11060.989776  12319.786682 -20753.946909   -114.238762
PG32  15589.342736  21337.417319   3585.276203     21.906032
PJ01 -28872.099120  20920.426680  27534.520463   -371.428025
PJ02 -35181.066605  21592.734561  -3894.301271      6.654263
PJ03 -20028.877040  24722.886142 -23087.116600     -4.291936
PR01  19132.504615  12599.556958  11209.313206     78.596006
PR02  23314.928347   4266.648240  -9456.600856    476.609618
PR03  12280.508062  -6236.035848 -21433.027773     34.998430
PR04  -5637.760597 -12859.694022 -21261.848051     84.433634
PR05 -20268.656161 -12452.973742  -9163.488061     70.780361
PR07 -11583.402837   6656.995589  21762.992550    -42.514778
PR08   5654.031068  13005.368847  21267.110897    -58.758383
PR09 -20075.143025   8053.580792  13592.208623     -9.778812
PR11  -6571.777399  16697.506673 -18125.797332     -1.086547
PR12   9691.054133   6074.410932 -22778.984225    224.569448
PR13  19745.474561  -7705.610547 -14210.517307    -54.039795
PR14  18424.309090 -17295.594348   3429.828165     63.660788
PR15   6328.878890 -16512.676966  18399.903798    104.117907
PR16 -10621.629371  -5306.796888  22537.129683    -14.396260
PR17   5996.601208 -16409.329799  18605.089662    419.616491
PR18  -1836.038377 -25057.672802   4237.560052     74.692920
PR19  -7911.710075 -21205.901315 -11764.769342   -141.590714
PR20 -10622.905072  -2713.725723 -23022.584842    -48.144715
PR21  -5503.123520  17333.789396 -17879.684927   -205.060008
PR22   2235.259759  25271.479425  -3147.878396   -110.076603
PR24  11076.471394   1732.114273  22925.092080     40.611015
EOF
